ONEWEB-0128             
1 47274U 20100S   24364.68465328 -.00000278  00000+0 -80679-3 0  9999
2 47274  87.8894  97.1237 0001502 112.5422 247.5866 13.12441849194632
ONEWEB-0129             
1 47275U 20100T   24364.73981722 -.00000120  00000+0 -37011-3 0  9995
2 47275  87.8886  97.0675 0002685 128.5975 231.5394 13.12443173194576
ONEWEB-0130             
1 47276U 20100U   24364.53866402 -.00000174  00000+0 -51954-3 0  9992
2 47276  87.8884  97.1121 0001594 109.6335 250.4966 13.12441274194519
ONEWEB-0131             
1 47277U 20100V   24364.53542361 -.00000506  00000+0 -14409-2 0  9990
2 47277  87.8888  97.1330 0001581 107.7100 252.4201 13.12443285194553
ONEWEB-0132             
1 47278U 20100W   24365.25077427  .00000485  00000+0  13125-2 0  9995
2 47278  87.8887  96.9924 0001529  98.0258 262.1044 13.12443067194547
ONEWEB-0133             
1 47279U 20100X   24365.26699439  .00000247  00000+0  65003-3 0  9999
2 47279  87.8883  96.9768 0001548 107.6262 252.5036 13.12442763194707
ONEWEB-0134             
1 47280U 20100Y   24365.23617631  .00000189  00000+0  48959-3 0  9998
2 47280  87.8880  96.9686 0001587 116.0918 244.0374 13.12445036194673
ONEWEB-0135             
1 47281U 20100Z   24364.52083510 -.00000319  00000+0 -92341-3 0  9994
2 47281  87.8888  97.1379 0001325 122.0955 238.0302 13.12445181194600
